LEMUR-2-ANDIS           
1 42838U 17042P   26068.55941107  .00023598  00000+0  79875-3 0  9998
2 42838  97.3659 249.7950 0009101   4.3248 355.8070 15.30557934473198
STARLINK-2707           
1 48669U 21044AH  26068.79677114 -.00000117  00000+0  81732-5 0  9993
2 48669  53.1615 103.6099 0001260  94.7454 265.3690 15.30195068263972
