[{"OBJECT_NAME":"LEMUR-2-ANDIS","OBJECT_ID":"2017-042P","EPOCH":"2026-03-09T13:25:33.116448","MEAN_MOTION":15.30557934,"ECCENTRICITY":0.0009101,"INCLINATION":97.3659,"RA_OF_ASC_NODE":249.795,"ARG_OF_PERICENTER":4.3248,"MEAN_ANOMALY":355.807,"EPHEMERIS_TYPE":0,"CLASSIFICATION_TYPE":"U","NORAD_CAT_ID":42838,"ELEMENT_SET_NO":999,"REV_AT_EPOCH":47319,"BSTAR":0.00079875,"MEAN_MOTION_DOT":0.00023598,"MEAN_MOTION_DDOT":0},{"OBJECT_NAME":"STARLINK-2707","OBJECT_ID":"2021-044AH","EPOCH":"2026-03-09T19:07:21.026496","MEAN_MOTION":15.30195068,"ECCENTRICITY":0.00012602,"INCLINATION":53.1615,"RA_OF_ASC_NODE":103.6099,"ARG_OF_PERICENTER":94.7454,"MEAN_ANOMALY":265.369,"EPHEMERIS_TYPE":0,"CLASSIFICATION_TYPE":"U","NORAD_CAT_ID":48669,"ELEMENT_SET_NO":999,"REV_AT_EPOCH":26397,"BSTAR":8.173191e-6,"MEAN_MOTION_DOT":-1.17e-6,"MEAN_MOTION_DDOT":0}]
